     3.00           N                   E                   RINEX VERSION / TYPE
BRD_USR             ESA                 20190116 011715  UTCPGM / RUN BY / DATE
 GAL   3.9750E+01  1.3281E-01 -1.4954E-03  0.0000E+00       IONOSPHERIC CORR
GAUT  1.8626451492E-09-8.881784197E-16 172800 2036 GSTB   0 TIME SYSTEM CORR
GPGA -4.4528860599E-09-2.442490654E-14 259200 2036 GSTB   0 TIME SYSTEM CORR
                                                            END OF HEADER
E14 2019 01 15 23 00 00 6.459360418376E-03-5.599076757790E-12 0.000000000000E+00
     4.200000000000E+01-2.000312500000E+02 4.346252467432E-09 2.999948786560E+00
    -8.607283234596E-06 1.662763542263E-01 3.423541784286E-06 5.289388971329E+03
     2.556000000000E+05 2.542510628700E-06-1.588504180650E+00-2.235174179077E-07
     8.826417206334E-01 2.124687500000E+02 1.458644265040E+00-5.768454565001E-09
     1.071473202588E-12 2.580000000000E+02 2.036000000000E+03 0.000000000000E+00
     3.120000000000E+00 5.600000000000E+01 3.282912075520E-08 0.000000000000E+00
     2.563000000000E+05 0.000000000000E+00 0.000000000000E+00 0.000000000000E+00
E15 2019 01 15 23 00 00 9.228601120412E-04-1.080024958355E-12 0.000000000000E+00
     4.200000000000E+01-8.331250000000E+01 2.645110179456E-09-1.225523125489E+00
    -3.844499588013E-06 3.936447901651E-04 9.337440133095E-06 5.440600425720E+03
     2.556000000000E+05 4.842877388000E-08-9.912298462332E-01-5.587935447693E-09
     9.852030158087E-01 1.521250000000E+02-1.567815547822E+00-5.388438735816E-09
     6.107397254753E-11 2.580000000000E+02 2.036000000000E+03 0.000000000000E+00
     3.120000000000E+00 5.600000000000E+01 1.396983861923E-09 0.000000000000E+00
     2.563000000000E+05 0.000000000000E+00 0.000000000000E+00 0.000000000000E+00
E19 2019 01 15 23 00 00-9.092444088310E-06 3.126388037344E-13 0.000000000000E+00
     4.200000000000E+01-3.075000000000E+01 3.375497745887E-09 2.985265785011E+00
    -1.391395926476E-06 1.314207911491E-04 7.802620530128E-06 5.440612579346E+03
     2.556000000000E+05-2.048909664154E-08 1.116115970573E+00 3.166496753693E-08
     9.581806601391E-01 1.677812500000E+02 2.411538433707E+00-5.664164506616E-09
    -1.721500278825E-10 2.580000000000E+02 2.036000000000E+03 0.000000000000E+00
     3.120000000000E+00 0.000000000000E+00-8.149072527885E-09 0.000000000000E+00
     2.563000000000E+05 0.000000000000E+00 0.000000000000E+00 0.000000000000E+00
E21 2019 01 15 22 00 00-5.146166076884E-04-1.847411112976E-12 0.000000000000E+00
     3.600000000000E+01 1.023750000000E+02 2.925479000800E-09 2.932649564900E+00
     4.719942808151E-06 4.471046850085E-05 4.475936293602E-06 5.440625993729E+03
     2.520000000000E+05 2.421438694000E-08-3.073846115469E+00-2.421438694000E-08
     9.896657293329E-01 2.580625000000E+02 6.501232214074E-01-5.645235146703E-09
     7.464596644698E-11 2.580000000000E+02 2.036000000000E+03 0.000000000000E+00
     3.120000000000E+00 0.000000000000E+00-2.328306436539E-09 0.000000000000E+00
     2.563000000000E+05 0.000000000000E+00 0.000000000000E+00 0.000000000000E+00
E26 2019 01 15 23 00 00 5.015431204811E-03-4.331468517194E-11 0.000000000000E+00
     4.200000000000E+01-5.734375000000E+01 2.684754687952E-09-2.397056102094E+00
    -2.756714820862E-06 3.208685666323E-04 9.605661034584E-06 5.440609378815E+03
     2.556000000000E+05-1.490116119385E-08-9.823254998343E-01-5.587935447693E-08
     9.783629857968E-01 1.445937500000E+02-1.960737933725E+00-5.396296205969E-09
     4.035882396416E-11 2.580000000000E+02 2.036000000000E+03 0.000000000000E+00
     3.120000000000E+00 0.000000000000E+00 9.313225746155E-10 0.000000000000E+00
     2.563000000000E+05 0.000000000000E+00 0.000000000000E+00 0.000000000000E+00
E27 2019 01 15 23 00 00 5.489572649822E-04-7.673861546209E-12 0.000000000000E+00
     4.200000000000E+01 1.043125000000E+02 2.921550265724E-09-6.447927955795E-01
     4.876405000687E-06 1.694019883871E-04 4.814937710762E-06 5.440628717422E+03
     2.556000000000E+05 2.793967723846E-08-3.073850562740E+00 7.264316082001E-08
     9.896380479970E-01 2.513125000000E+02-8.224260068300E-01-5.665950295287E-09
     1.414344627416E-10 2.580000000000E+02 2.036000000000E+03 0.000000000000E+00
     3.120000000000E+00 0.000000000000E+00-2.561137080193E-09 0.000000000000E+00
     2.563000000000E+05 0.000000000000E+00 0.000000000000E+00 0.000000000000E+00
E31 2019 01 15 23 00 00 9.316731593572E-04-9.606537787477E-12 0.000000000000E+00
     4.200000000000E+01 1.106562500000E+02 2.991196023892E-09-2.257237397992E+00
     5.235895514488E-06 2.120559802279E-04 4.282221198082E-06 5.440627740860E+03
     2.556000000000E+05-3.352761268616E-08-3.073899511979E+00-5.587935447693E-08
     9.896410762374E-01 2.634375000000E+02-1.566132268930E+00-5.709523538859E-09
     1.525063525017E-10 2.580000000000E+02 2.036000000000E+03 0.000000000000E+00
     3.120000000000E+00 0.000000000000E+00-2.328306436539E-10 0.000000000000E+00
     2.563000000000E+05 0.000000000000E+00 0.000000000000E+00 0.000000000000E+00
E36 2019 01 15 23 00 00 7.592136389576E-04-4.504840944719E-12 0.000000000000E+00
     4.200000000000E+01-1.016875000000E+02 2.468674258763E-09 2.730572524220E-01
    -4.632398486137E-06 3.420838620514E-04 1.091137528419E-05 5.440607610703E+03
     2.556000000000E+05 7.450580596924E-09-9.912280175856E-01 3.725290298462E-09
     9.852500442362E-01 1.198750000000E+02-1.493570196554E+00-5.328079078737E-09
     8.036049019412E-11 2.580000000000E+02 2.036000000000E+03 0.000000000000E+00
     3.120000000000E+00 5.600000000000E+01 1.164153218269E-09 0.000000000000E+00
     2.563000000000E+05 0.000000000000E+00 0.000000000000E+00 0.000000000000E+00
E07 2019 01 15 23 00 00-1.132849138230E-04-7.077005648171E-12 0.000000000000E+00
     4.200000000000E+01-4.471875000000E+01 3.435500245232E-09 6.576933616484E-01
    -2.061948180199E-06 1.353325787932E-04 7.571652531624E-06 5.440614927292E+03
     2.556000000000E+05-3.166496753693E-08 1.119362339397E+00-5.587935447693E-09
     9.524528399296E-01 1.739062500000E+02-5.259866801993E-02-5.724881321429E-09
    -1.725071856167E-10 5.210000000000E+02 2.036000000000E+03 0.000000000000E+00
     3.120000000000E+00 0.000000000000E+00 2.328306436539E-10 0.000000000000E+00
     2.564350000000E+05 0.000000000000E+00 0.000000000000E+00 0.000000000000E+00
E07 2019 01 15 23 00 00-1.132850884460E-04-7.077005648171E-12 0.000000000000E+00
     4.200000000000E+01-4.471875000000E+01 3.435500245232E-09 6.576933616484E-01
    -2.061948180199E-06 1.353325787932E-04 7.571652531624E-06 5.440614927292E+03
     2.556000000000E+05-3.166496753693E-08 1.119362339397E+00-5.587935447693E-09
     9.524528399296E-01 1.739062500000E+02-5.259866801993E-02-5.724881321429E-09
    -1.725071856167E-10 2.580000000000E+02 2.036000000000E+03 0.000000000000E+00
     3.120000000000E+00 0.000000000000E+00 2.328306436539E-10 0.000000000000E+00
     2.564500000000E+05 0.000000000000E+00 0.000000000000E+00 0.000000000000E+00
E25 2019 01 15 22 30 00 1.922728028148E-03-1.139710548159E-11 0.000000000000E+00
     3.900000000000E+01 1.269062500000E+02 2.933336470952E-09 2.038580307967E+00
     5.885958671570E-06 1.732412492856E-04 4.775822162628E-06 5.440626695633E+03
     2.538000000000E+05-3.166496753693E-08-3.073865186069E+00-7.636845111847E-08
     9.896707749374E-01 2.505312500000E+02-1.372639603743E+00-5.695237229491E-09
     1.371485699313E-10 2.580000000000E+02 2.036000000000E+03 0.000000000000E+00
     3.120000000000E+00 0.000000000000E+00-1.396983861923E-09 0.000000000000E+00
     2.564500000000E+05 0.000000000000E+00 0.000000000000E+00 0.000000000000E+00
E33 2019 01 15 23 00 00 8.479249663651E-04 4.263256414561E-14 0.000000000000E+00
     4.200000000000E+01-6.356250000000E+01 2.563678216059E-09 2.534603909684E+00
    -3.008171916008E-06 3.763732966036E-04 1.017749309540E-05 5.440603416443E+03
     2.556000000000E+05-6.519258022308E-08-9.912544612928E-01 3.539025783539E-08
     9.852417582682E-01 1.325312500000E+02-1.400559430396E+00-5.349151385055E-09
     1.028614274485E-10 5.210000000000E+02 2.036000000000E+03 0.000000000000E+00
     3.120000000000E+00 4.550000000000E+02-8.381903171539E-09-9.313225746155E-09
     2.564950000000E+05 0.000000000000E+00 0.000000000000E+00 0.000000000000E+00
E33 2019 01 15 23 00 00 8.479257812724E-04 4.263256414561E-14 0.000000000000E+00
     4.200000000000E+01-6.356250000000E+01 2.563678216059E-09 2.534603909684E+00
    -3.008171916008E-06 3.763732966036E-04 1.017749309540E-05 5.440603416443E+03
     2.556000000000E+05-6.519258022308E-08-9.912544612928E-01 3.539025783539E-08
     9.852417582682E-01 1.325312500000E+02-1.400559430396E+00-5.349151385055E-09
     1.028614274485E-10 2.580000000000E+02 2.036000000000E+03 0.000000000000E+00
     3.120000000000E+00 5.600000000000E+01-8.381903171539E-09 0.000000000000E+00
     2.565000000000E+05 0.000000000000E+00 0.000000000000E+00 0.000000000000E+00
E05 2019 01 15 22 40 00 1.244195736945E-04-6.522782314278E-12 0.000000000000E+00
     4.000000000000E+01-4.537500000000E+01 3.524075363313E-09 1.175905823072E+00
    -2.054497599602E-06 1.273290254176E-04 7.743015885353E-06 5.440607908249E+03
     2.544000000000E+05 4.284083843231E-08 1.119351750796E+00-2.421438694000E-08
     9.524226701700E-01 1.690937500000E+02 1.638334045063E+00-5.775954877419E-09
    -2.417957860507E-10 5.210000000000E+02 2.036000000000E+03 0.000000000000E+00
     3.120000000000E+00 0.000000000000E+00-1.629814505577E-09-1.629814505577E-09
     2.565850000000E+05 0.000000000000E+00 0.000000000000E+00 0.000000000000E+00
